{
    "links": {
        "self": "http://www.neowsapp.com/rest/v1/neo/3825087?api_key=iIulBulltgU6a56xZRHN4H3l9WmuAYTsLGpBGhQ2"
    },
    "id": "3825087",
    "neo_reference_id": "3825087",
    "name": "(2018 LL)",
    "designation": "2018 LL",
    "nasa_jpl_url": "http://ssd.jpl.nasa.gov/sbdb.cgi?sstr=3825087",
    "absolute_magnitude_h": 24.6,
    "estimated_diameter": {
        "kilometers": {
            "estimated_diameter_min": 0.0319561887,
            "estimated_diameter_max": 0.0714562102
        },
        "meters": {
            "estimated_diameter_min": 31.9561886721,
            "estimated_diameter_max": 71.4562101727
        },
        "miles": {
            "estimated_diameter_min": 0.0198566489,
            "estimated_diameter_max": 0.0444008168
        },
        "feet": {
            "estimated_diameter_min": 104.8431420431,
            "estimated_diameter_max": 234.436392583
        }
    },
    "is_potentially_hazardous_asteroid": false,
    "close_approach_data": [
        {
            "close_approach_date": "2018-05-31",
            "close_approach_date_full": "2018-May-31 03:00",
            "epoch_date_close_approach": 1527735600000,
            "relative_velocity": {
                "kilometers_per_second": "28.5652160832",
                "kilometers_per_hour": "102834.7778994746",
                "miles_per_hour": "63897.5318564819"
            },
            "miss_distance": {
                "astronomical": "0.0100987365",
                "lunar": "3.9284084985",
                "kilometers": "1510749.470091255",
                "miles": "938736.190939119"
            },
            "orbiting_body": "Earth"
        }
    ],
    "orbital_data": {
        "orbit_id": "2",
        "orbit_determination_date": "2018-06-11 06:23:12",
        "first_observation_date": "2018-06-03",
        "last_observation_date": "2018-06-10",
        "data_arc_in_days": 7,
        "observations_used": 18,
        "orbit_uncertainty": "9",
        "minimum_orbit_intersection": ".00935993",
        "jupiter_tisserand_invariant": "3.767",
        "epoch_osculation": "2458274.5",
        "eccentricity": ".4700630347026012",
        "semi_major_axis": "1.665529704963583",
        "inclination": "49.9256448119152",
        "ascending_node_longitude": "249.0710494733186",
        "orbital_period": "785.1036583937142",
        "perihelion_distance": ".8826257574610733",
        "perihelion_argument": "308.5069995856107",
        "aphelion_distance": "2.448433652466093",
        "perihelion_time": "2458230.417765346773",
        "mean_anomaly": "20.21338750048649",
        "mean_motion": ".4585381766486012",
        "equinox": "J2000",
        "orbit_class": {
            "orbit_class_type": "APO",
            "orbit_class_description": "Near-Earth asteroid orbits which cross the Earth’s orbit similar to that of 1862 Apollo",
            "orbit_class_range": "a (semi-major axis) > 1.0 AU; q (perihelion) < 1.017 AU"
        }
    },
    "is_sentry_object": false
}